IRIDIUM 166             
1 43570U 18061B   24298.51832303  .00000337  00000+0  11324-3 0  9991
2 43570  86.3927 307.7642 0002537  91.1927 268.9559 14.34219731327305
IRIDIUM 158             
1 43571U 18061C   24297.78890984  .00000261  00000+0  86034-4 0  9996
2 43571  86.3926 308.0791 0002382  94.1532 265.9936 14.34215678327163
IRIDIUM 165             
1 43572U 18061D   24298.09336471  .00000267  00000+0  88348-4 0  9994
2 43572  86.3928 307.9868 0002251  88.3823 271.7631 14.34218750327231
IRIDIUM 155             
1 43573U 18061E   24298.12506601  .00000230  00000+0  75012-4 0  9997
2 43573  86.3922 307.8722 0002441  93.1801 266.9674 14.34217883327212
IRIDIUM 154             
1 43574U 18061F   24298.52465769  .00000077  00000+0  20270-4 0  9996
2 43574  86.3928 307.8090 0002077  92.5020 267.6414 14.34217811327310
IRIDIUM 163             
1 43575U 18061G   24297.94747822  .00000233  00000+0  76165-4 0  9993
2 43575  86.3925 307.9849 0002246  97.3930 262.7521 14.34219638327204
IRIDIUM 156             
1 43576U 18061H   24297.78257607  .00000272  00000+0  89967-4 0  9990
2 43576  86.3925 308.0604 0002595  91.1431 269.0062 14.34216632327178
IRIDIUM 164             
1 43577U 18061J   24298.53100126 -.00000064  00000+0 -29879-4 0  9995
2 43577  86.3925 307.7779 0002164  86.3139 273.8304 14.34217942327325
